[{"OBJECT_NAME":"STARLINK-30454","OBJECT_ID":"2023-147C","EPOCH":"2026-03-09T22:00:01.999584","MEAN_MOTION":15.26731954,"ECCENTRICITY":0.00015591,"INCLINATION":42.9998,"RA_OF_ASC_NODE":323.5081,"ARG_OF_PERICENTER":271.2375,"MEAN_ANOMALY":232.3862,"EPHEMERIS_TYPE":0,"CLASSIFICATION_TYPE":"U","NORAD_CAT_ID":57915,"ELEMENT_SET_NO":999,"REV_AT_EPOCH":578,"BSTAR":-0.00010894842,"MEAN_MOTION_DOT":-3.18e-5,"MEAN_MOTION_DDOT":0},{"OBJECT_NAME":"OBJECT M","OBJECT_ID":"2024-205M","EPOCH":"2026-03-09T22:23:47.520096","MEAN_MOTION":15.27663844,"ECCENTRICITY":0.00036602,"INCLINATION":97.3915,"RA_OF_ASC_NODE":144.193,"ARG_OF_PERICENTER":310.2554,"MEAN_ANOMALY":49.8364,"EPHEMERIS_TYPE":0,"CLASSIFICATION_TYPE":"U","NORAD_CAT_ID":61905,"ELEMENT_SET_NO":999,"REV_AT_EPOCH":7334,"BSTAR":0.00036391974,"MEAN_MOTION_DOT":9.771e-5,"MEAN_MOTION_DDOT":0}]
